GLOBALSTAR M001         
1 25162U 98008A   26001.71694191 -.00000070  00000+0  20102-3 0  9993
2 25162  52.0029 115.3794 0000631 341.8148 189.0501 12.38224951268305
GLOBALSTAR M004         
1 25163U 98008B   26001.90526975 -.00000084  00000+0  11272-3 0  9992
2 25163  51.9981 167.9033 0003445  30.6252 125.0867 12.63411824286800
GLOBALSTAR M002         
1 25164U 98008C   26001.44109115 -.00000086  00000+0 -18626-3 0  9998
2 25164  52.0014 103.1127 0002270 139.2402 220.8588 11.61514502207108
GLOBALSTAR M003         
1 25165U 98008D   26002.11511640 -.00000193  00000+0 -11010-2 0  9992
2 25165  51.9922 337.5473 0008191 336.0538 104.6431 12.12038388257344
GLOBALSTAR M014         
1 25306U 98023A   26001.99873940 -.00000059  00000+0  35283-3 0  9994
2 25306  51.9868  20.7578 0000852  10.3398   3.6183 11.65483795214358
GLOBALSTAR M006         
1 25307U 98023B   26001.46432622 -.00000109  00000+0 -67651-3 0  9996
2 25307  51.9951  81.9930 0003734 113.4388 332.9491 11.58177686239807
GLOBALSTAR M015         
1 25308U 98023C   26001.50013140 -.00000037  00000+0  82234-3 0  9995
2 25308  51.9786 189.4663 0013760  70.9350 313.5764 11.48863397216877
GLOBALSTAR M008         
1 25309U 98023D   26002.07945425 -.00000077  00000+0  14794-3 0  9999
2 25309  51.9993 341.4097 0002343 234.9466 200.4589 12.36077671262447
